{
  "type": "FeatureCollection",
  "metadata": {
    "source": "OpenStreetMap via Overpass API",
    "license": "Open Database License (ODbL)",
    "dataset": "university",
    "label": "university area",
    "layer": "water",
    "bbox": [
      118.76,
      31.895,
      118.815,
      31.93
    ],
    "generatedAt": "2026-05-01T03:47:40.104Z"
  },
  "features": [
    {
      "type": "Feature",
      "properties": {
        "osm_id": 92364169,
        "dataset": "university",
        "kind": "waterway",
        "name": "牛首山河",
        "highway": "",
        "waterway": "river",
        "bridge": "",
        "tunnel": "",
        "layer": 0,
        "width_m": 18,
        "z_offset_m": 0
      },
      "geometry": {
        "type": "LineString",
        "coordinates": [
          [
            118.7722814,
            31.8933429
          ],
          [
            118.7724212,
            31.8932459
          ],
          [
            118.7725808,
            31.8932337
          ],
          [
            118.7728668,
            31.8933976
          ],
          [
            118.7731977,
            31.8935874
          ],
          [
            118.7737221,
            31.8938863
          ],
          [
            118.7742302,
            31.894018
          ],
          [
            118.7744333,
            31.8940669
          ],
          [
            118.774608,
            31.8940985
          ],
          [
            118.7748232,
            31.8941825
          ],
          [
            118.7749978,
            31.8943148
          ],
          [
            118.7751138,
            31.8944132
          ],
          [
            118.7752667,
            31.8946682
          ],
          [
            118.7755172,
            31.8950717
          ],
          [
            118.7764665,
            31.8963751
          ],
          [
            118.77804,
            31.8984158
          ],
          [
            118.778537,
            31.8990741
          ],
          [
            118.7790381,
            31.8997806
          ],
          [
            118.7800891,
            31.9011937
          ],
          [
            118.7808413,
            31.9022321
          ],
          [
            118.7815571,
            31.9033838
          ],
          [
            118.7822893,
            31.9041963
          ],
          [
            118.7824584,
            31.904482
          ],
          [
            118.7825949,
            31.9047815
          ],
          [
            118.7828192,
            31.9053943
          ],
          [
            118.782968,
            31.9061158
          ],
          [
            118.7830894,
            31.9067044
          ],
          [
            118.7831636,
            31.907048
          ],
          [
            118.7832986,
            31.907543
          ],
          [
            118.7833413,
            31.9077906
          ],
          [
            118.7833698,
            31.9080441
          ],
          [
            118.78342,
            31.9083391
          ],
          [
            118.7834913,
            31.9086402
          ],
          [
            118.7837968,
            31.9091822
          ],
          [
            118.7845005,
            31.9103512
          ],
          [
            118.7852301,
            31.9112255
          ],
          [
            118.7886633,
            31.9127009
          ],
          [
            118.7988342,
            31.918675
          ],
          [
            118.802482,
            31.9206238
          ],
          [
            118.8083614,
            31.9211338
          ],
          [
            118.8092412,
            31.9206785
          ],
          [
            118.8096844,
            31.9206703
          ],
          [
            118.8102283,
            31.9206602
          ],
          [
            118.8117947,
            31.9218805
          ],
          [
            118.819219,
            31.9240478
          ],
          [
            118.8216437,
            31.9248673
          ],
          [
            118.8256349,
            31.9263061
          ],
          [
            118.8259642,
            31.926418
          ],
          [
            118.8286096,
            31.9273166
          ],
          [
            118.8316217,
            31.9300778
          ]
        ]
      }
    },
    {
      "type": "Feature",
      "properties": {
        "osm_id": 189541214,
        "dataset": "university",
        "kind": "waterway",
        "name": "",
        "highway": "",
        "waterway": "river",
        "bridge": "",
        "tunnel": "",
        "layer": -1,
        "width_m": 18,
        "z_offset_m": 0
      },
      "geometry": {
        "type": "LineString",
        "coordinates": [
          [
            118.8094265,
            31.9190039
          ],
          [
            118.8094788,
            31.9196276
          ]
        ]
      }
    },
    {
      "type": "Feature",
      "properties": {
        "osm_id": 189541215,
        "dataset": "university",
        "kind": "waterway",
        "name": "",
        "highway": "",
        "waterway": "river",
        "bridge": "",
        "tunnel": "",
        "layer": 0,
        "width_m": 18,
        "z_offset_m": 0
      },
      "geometry": {
        "type": "LineString",
        "coordinates": [
          [
            118.8094788,
            31.9196276
          ],
          [
            118.8094857,
            31.9197104
          ],
          [
            118.8096844,
            31.9206703
          ]
        ]
      }
    },
    {
      "type": "Feature",
      "properties": {
        "osm_id": 300165440,
        "dataset": "university",
        "kind": "waterway",
        "name": "护校沟",
        "highway": "",
        "waterway": "drain",
        "bridge": "",
        "tunnel": "",
        "layer": 0,
        "width_m": 4,
        "z_offset_m": 0
      },
      "geometry": {
        "type": "LineString",
        "coordinates": [
          [
            118.8069756,
            31.888513
          ],
          [
            118.8068696,
            31.8886144
          ],
          [
            118.8066904,
            31.8887196
          ],
          [
            118.8065067,
            31.8888408
          ],
          [
            118.806385,
            31.8889248
          ],
          [
            118.8063438,
            31.8890125
          ],
          [
            118.8063226,
            31.889144
          ],
          [
            118.8060989,
            31.8918984
          ],
          [
            118.8060024,
            31.8930462
          ],
          [
            118.8058588,
            31.8946221
          ],
          [
            118.8058664,
            31.8946821
          ],
          [
            118.8058885,
            31.8947308
          ],
          [
            118.8059254,
            31.8947755
          ],
          [
            118.805986,
            31.8948186
          ],
          [
            118.8060616,
            31.8948439
          ],
          [
            118.8094409,
            31.895082
          ],
          [
            118.8096125,
            31.8950931
          ]
        ]
      }
    },
    {
      "type": "Feature",
      "properties": {
        "osm_id": 346884320,
        "dataset": "university",
        "kind": "waterway",
        "name": "",
        "highway": "",
        "waterway": "stream",
        "bridge": "",
        "tunnel": "",
        "layer": 0,
        "width_m": 6,
        "z_offset_m": 0
      },
      "geometry": {
        "type": "LineString",
        "coordinates": [
          [
            118.7995447,
            31.8948211
          ],
          [
            118.7997078,
            31.8948334
          ],
          [
            118.8050905,
            31.8952489
          ]
        ]
      }
    },
    {
      "type": "Feature",
      "properties": {
        "osm_id": 630150005,
        "dataset": "university",
        "kind": "waterway",
        "name": "护校沟",
        "highway": "",
        "waterway": "drain",
        "bridge": "",
        "tunnel": "",
        "layer": 0,
        "width_m": 4,
        "z_offset_m": 0
      },
      "geometry": {
        "type": "LineString",
        "coordinates": [
          [
            118.8179553,
            31.8956994
          ],
          [
            118.8137046,
            31.8953804
          ],
          [
            118.8100489,
            31.8951254
          ]
        ]
      }
    },
    {
      "type": "Feature",
      "properties": {
        "osm_id": 912640877,
        "dataset": "university",
        "kind": "waterway",
        "name": "",
        "highway": "",
        "waterway": "stream",
        "bridge": "",
        "tunnel": "",
        "layer": 0,
        "width_m": 6,
        "z_offset_m": 0
      },
      "geometry": {
        "type": "LineString",
        "coordinates": [
          [
            118.8098469,
            31.8955968
          ],
          [
            118.8101561,
            31.8956257
          ],
          [
            118.8122938,
            31.8957886
          ],
          [
            118.8178754,
            31.8961705
          ]
        ]
      }
    },
    {
      "type": "Feature",
      "properties": {
        "osm_id": 1115777331,
        "dataset": "university",
        "kind": "waterway",
        "name": "牛首山河",
        "highway": "",
        "waterway": "river",
        "bridge": "",
        "tunnel": "",
        "layer": 0,
        "width_m": 18,
        "z_offset_m": 0
      },
      "geometry": {
        "type": "LineString",
        "coordinates": [
          [
            118.7692641,
            31.8961966
          ],
          [
            118.770703,
            31.8946921
          ],
          [
            118.7709949,
            31.8944276
          ],
          [
            118.7713403,
            31.8941494
          ],
          [
            118.7721151,
            31.8934932
          ]
        ]
      }
    },
    {
      "type": "Feature",
      "properties": {
        "osm_id": 1115777332,
        "dataset": "university",
        "kind": "waterway",
        "name": "牛首山河",
        "highway": "",
        "waterway": "river",
        "bridge": "",
        "tunnel": "culvert",
        "layer": -1,
        "width_m": 18,
        "z_offset_m": 0
      },
      "geometry": {
        "type": "LineString",
        "coordinates": [
          [
            118.7690835,
            31.8963739
          ],
          [
            118.7692641,
            31.8961966
          ]
        ]
      }
    },
    {
      "type": "Feature",
      "properties": {
        "osm_id": 1115777353,
        "dataset": "university",
        "kind": "waterway",
        "name": "牛首山河",
        "highway": "",
        "waterway": "river",
        "bridge": "",
        "tunnel": "",
        "layer": 0,
        "width_m": 18,
        "z_offset_m": 0
      },
      "geometry": {
        "type": "LineString",
        "coordinates": [
          [
            118.7565991,
            31.9078526
          ],
          [
            118.7566785,
            31.907865
          ],
          [
            118.7562016,
            31.9092344
          ],
          [
            118.7563965,
            31.9094608
          ],
          [
            118.7636668,
            31.9104239
          ],
          [
            118.7650715,
            31.9064918
          ],
          [
            118.7613528,
            31.9055021
          ]
        ]
      }
    },
    {
      "type": "Feature",
      "properties": {
        "osm_id": 1147954192,
        "dataset": "university",
        "kind": "waterway",
        "name": "牛首山河",
        "highway": "",
        "waterway": "river",
        "bridge": "",
        "tunnel": "",
        "layer": 0,
        "width_m": 18,
        "z_offset_m": 0
      },
      "geometry": {
        "type": "LineString",
        "coordinates": [
          [
            118.7611562,
            31.9054498
          ],
          [
            118.7610774,
            31.9053525
          ],
          [
            118.7611513,
            31.904923
          ],
          [
            118.7614475,
            31.9044211
          ],
          [
            118.7622018,
            31.9039397
          ],
          [
            118.7626357,
            31.904088
          ],
          [
            118.7647081,
            31.9015114
          ],
          [
            118.7664481,
            31.8992847
          ],
          [
            118.7684403,
            31.8970518
          ],
          [
            118.7688003,
            31.8966513
          ],
          [
            118.7690835,
            31.8963739
          ]
        ]
      }
    },
    {
      "type": "Feature",
      "properties": {
        "osm_id": 1147954193,
        "dataset": "university",
        "kind": "waterway",
        "name": "牛首山河",
        "highway": "",
        "waterway": "river",
        "bridge": "",
        "tunnel": "culvert",
        "layer": -1,
        "width_m": 18,
        "z_offset_m": 0
      },
      "geometry": {
        "type": "LineString",
        "coordinates": [
          [
            118.7613528,
            31.9055021
          ],
          [
            118.7611562,
            31.9054498
          ]
        ]
      }
    },
    {
      "type": "Feature",
      "properties": {
        "osm_id": 1147955381,
        "dataset": "university",
        "kind": "waterway",
        "name": "",
        "highway": "",
        "waterway": "stream",
        "bridge": "",
        "tunnel": "",
        "layer": 0,
        "width_m": 6,
        "z_offset_m": 0
      },
      "geometry": {
        "type": "LineString",
        "coordinates": [
          [
            118.8057744,
            31.8953017
          ],
          [
            118.8098469,
            31.8955968
          ]
        ]
      }
    },
    {
      "type": "Feature",
      "properties": {
        "osm_id": 1147955382,
        "dataset": "university",
        "kind": "waterway",
        "name": "",
        "highway": "",
        "waterway": "stream",
        "bridge": "",
        "tunnel": "culvert",
        "layer": -1,
        "width_m": 6,
        "z_offset_m": 0
      },
      "geometry": {
        "type": "LineString",
        "coordinates": [
          [
            118.8050905,
            31.8952489
          ],
          [
            118.8057744,
            31.8953017
          ]
        ]
      }
    },
    {
      "type": "Feature",
      "properties": {
        "osm_id": 92364160,
        "dataset": "university",
        "kind": "water_area",
        "name": "高湖",
        "natural": "water",
        "landuse": "",
        "water": "lake",
        "area_type": "lake"
      },
      "geometry": {
        "type": "Polygon",
        "coordinates": [
          [
            [
              118.7952728,
              31.927972
            ],
            [
              118.7947042,
              31.9280084
            ],
            [
              118.7938888,
              31.9280084
            ],
            [
              118.7929509,
              31.9278803
            ],
            [
              118.7923546,
              31.9277534
            ],
            [
              118.7922258,
              31.9276715
            ],
            [
              118.7921614,
              31.9274712
            ],
            [
              118.7920595,
              31.9271847
            ],
            [
              118.7919122,
              31.9272429
            ],
            [
              118.7918851,
              31.9271786
            ],
            [
              118.7920647,
              31.9271037
            ],
            [
              118.7919534,
              31.9269102
            ],
            [
              118.7919043,
              31.9268255
            ],
            [
              118.791938,
              31.9267941
            ],
            [
              118.791953,
              31.9267711
            ],
            [
              118.7919573,
              31.9267436
            ],
            [
              118.79192,
              31.9267243
            ],
            [
              118.7918842,
              31.9267332
            ],
            [
              118.7917602,
              31.9265187
            ],
            [
              118.7914813,
              31.9261581
            ],
            [
              118.7913568,
              31.9258139
            ],
            [
              118.7912817,
              31.9253495
            ],
            [
              118.7912817,
              31.9250399
            ],
            [
              118.7913031,
              31.9247485
            ],
            [
              118.7918718,
              31.9248487
            ],
            [
              118.7921614,
              31.9247212
            ],
            [
              118.7923116,
              31.9244753
            ],
            [
              118.7924297,
              31.9244025
            ],
            [
              118.7927837,
              31.9243842
            ],
            [
              118.7930305,
              31.9243205
            ],
            [
              118.7932665,
              31.9242021
            ],
            [
              118.7935455,
              31.9240473
            ],
            [
              118.7936742,
              31.9239654
            ],
            [
              118.7940712,
              31.9238379
            ],
            [
              118.7944789,
              31.9239198
            ],
            [
              118.7949939,
              31.9239381
            ],
            [
              118.7950797,
              31.9238834
            ],
            [
              118.7952406,
              31.92402
            ],
            [
              118.7955947,
              31.9240837
            ],
            [
              118.7958629,
              31.9241475
            ],
            [
              118.7961097,
              31.9241384
            ],
            [
              118.7962277,
              31.9241839
            ],
            [
              118.7962277,
              31.9246392
            ],
            [
              118.7959487,
              31.9255771
            ],
            [
              118.7959487,
              31.9257957
            ],
            [
              118.7959487,
              31.9259869
            ],
            [
              118.7957663,
              31.9261508
            ],
            [
              118.7956483,
              31.9262874
            ],
            [
              118.795541,
              31.9267336
            ],
            [
              118.7955088,
              31.9272071
            ],
            [
              118.7954981,
              31.9274438
            ],
            [
              118.7953372,
              31.9276442
            ],
            [
              118.7952728,
              31.927972
            ]
          ]
        ]
      }
    },
    {
      "type": "Feature",
      "properties": {
        "osm_id": 92364519,
        "dataset": "university",
        "kind": "water_area",
        "name": "",
        "natural": "water",
        "landuse": "",
        "water": "",
        "area_type": "water"
      },
      "geometry": {
        "type": "Polygon",
        "coordinates": [
          [
            [
              118.7735356,
              31.9160523
            ],
            [
              118.7731923,
              31.9158701
            ],
            [
              118.7736,
              31.9153419
            ],
            [
              118.7735571,
              31.9141216
            ],
            [
              118.7728061,
              31.9137209
            ],
            [
              118.7716903,
              31.9133202
            ],
            [
              118.7713684,
              31.9129559
            ],
            [
              118.7719478,
              31.9127191
            ],
            [
              118.7730207,
              31.9126098
            ],
            [
              118.7738146,
              31.9127555
            ],
            [
              118.7742867,
              31.9129195
            ],
            [
              118.7747587,
              31.9140487
            ],
            [
              118.7745871,
              31.914413
            ],
            [
              118.7744154,
              31.9149959
            ],
            [
              118.7742008,
              31.9153966
            ],
            [
              118.7735356,
              31.9160523
            ]
          ]
        ]
      }
    },
    {
      "type": "Feature",
      "properties": {
        "osm_id": 92365241,
        "dataset": "university",
        "kind": "water_area",
        "name": "九龙湖",
        "natural": "water",
        "landuse": "",
        "water": "",
        "area_type": "water"
      },
      "geometry": {
        "type": "Polygon",
        "coordinates": [
          [
            [
              118.821816,
              31.9085269
            ],
            [
              118.8215897,
              31.9090534
            ],
            [
              118.821344,
              31.9092704
            ],
            [
              118.8209074,
              31.9094763
            ],
            [
              118.8204936,
              31.9095077
            ],
            [
              118.8199875,
              31.9093594
            ],
            [
              118.8196258,
              31.9090696
            ],
            [
              118.8193586,
              31.908614
            ],
            [
              118.8189693,
              31.9081415
            ],
            [
              118.8181649,
              31.9078636
            ],
            [
              118.8180026,
              31.9074933
            ],
            [
              118.8176741,
              31.9071759
            ],
            [
              118.8171439,
              31.9070462
            ],
            [
              118.8166082,
              31.9068033
            ],
            [
              118.8163107,
              31.9064576
            ],
            [
              118.8161364,
              31.906048
            ],
            [
              118.8153982,
              31.9058614
            ],
            [
              118.8149118,
              31.9058878
            ],
            [
              118.8140213,
              31.9059237
            ],
            [
              118.8137228,
              31.9057879
            ],
            [
              118.813408,
              31.9054133
            ],
            [
              118.8129126,
              31.9051163
            ],
            [
              118.8124,
              31.90519
            ],
            [
              118.8121312,
              31.9055433
            ],
            [
              118.8120023,
              31.9060279
            ],
            [
              118.8117543,
              31.9063555
            ],
            [
              118.8113899,
              31.9065169
            ],
            [
              118.8109218,
              31.9071929
            ],
            [
              118.8112582,
              31.9076553
            ],
            [
              118.8107003,
              31.908384
            ],
            [
              118.8098849,
              31.9090397
            ],
            [
              118.8094129,
              31.9103148
            ],
            [
              118.8096489,
              31.9107883
            ],
            [
              118.8102497,
              31.9111709
            ],
            [
              118.8107432,
              31.911863
            ],
            [
              118.8109392,
              31.9127211
            ],
            [
              118.8112945,
              31.9131248
            ],
            [
              118.8115761,
              31.9133684
            ],
            [
              118.8117947,
              31.9136028
            ],
            [
              118.811926,
              31.9139021
            ],
            [
              118.8120522,
              31.9143402
            ],
            [
              118.812049,
              31.9145077
            ],
            [
              118.8120162,
              31.9146886
            ],
            [
              118.811967,
              31.9147397
            ],
            [
              118.8117729,
              31.9147443
            ],
            [
              118.8116909,
              31.9147861
            ],
            [
              118.8116253,
              31.9148766
            ],
            [
              118.8115952,
              31.9149276
            ],
            [
              118.8116075,
              31.9149763
            ],
            [
              118.8116512,
              31.9150123
            ],
            [
              118.8116909,
              31.9150459
            ],
            [
              118.8116963,
              31.9150912
            ],
            [
              118.8113109,
              31.9155633
            ],
            [
              118.8112508,
              31.9155819
            ],
            [
              118.8111688,
              31.9155494
            ],
            [
              118.8108709,
              31.9153615
            ],
            [
              118.810726,
              31.9151991
            ],
            [
              118.8106631,
              31.9151063
            ],
            [
              118.8106481,
              31.9149775
            ],
            [
              118.8105674,
              31.9149392
            ],
            [
              118.8105087,
              31.9149798
            ],
            [
              118.8104827,
              31.9150947
            ],
            [
              118.8102886,
              31.9152803
            ],
            [
              118.8102449,
              31.9154102
            ],
            [
              118.8103406,
              31.9157142
            ],
            [
              118.810357,
              31.9157977
            ],
            [
              118.8103324,
              31.9158487
            ],
            [
              118.8102504,
              31.9158719
            ],
            [
              118.8101055,
              31.9158859
            ],
            [
              118.8097857,
              31.9158534
            ],
            [
              118.8096764,
              31.9159323
            ],
            [
              118.8095889,
              31.9161225
            ],
            [
              118.8095534,
              31.9161921
            ],
            [
              118.8095123,
              31.9161968
            ],
            [
              118.8089192,
              31.9160622
            ],
            [
              118.8088208,
              31.9160784
            ],
            [
              118.8087661,
              31.9161248
            ],
            [
              118.8087333,
              31.9162594
            ],
            [
              118.8086896,
              31.9164705
            ],
            [
              118.8087087,
              31.9165494
            ],
            [
              118.8090859,
              31.9166492
            ],
            [
              118.8095698,
              31.916749
            ],
            [
              118.8096545,
              31.9168116
            ],
            [
              118.8096545,
              31.9169044
            ],
            [
              118.8096545,
              31.9170204
            ],
            [
              118.8097991,
              31.9174547
            ],
            [
              118.8097991,
              31.9182743
            ],
            [
              118.8095595,
              31.9189969
            ],
            [
              118.8094265,
              31.9190039
            ],
            [
              118.8092732,
              31.9190119
            ],
            [
              118.8093056,
              31.9185293
            ],
            [
              118.8084473,
              31.9180558
            ],
            [
              118.8075675,
              31.9177279
            ],
            [
              118.8073529,
              31.9172362
            ],
            [
              118.8073448,
              31.916452
            ],
            [
              118.8073598,
              31.9163638
            ],
            [
              118.8074117,
              31.9162884
            ],
            [
              118.8075019,
              31.9162675
            ],
            [
              118.8079598,
              31.9163963
            ],
            [
              118.808039,
              31.9163963
            ],
            [
              118.8080773,
              31.9163661
            ],
            [
              118.8081757,
              31.9161782
            ],
            [
              118.8082413,
              31.9160135
            ],
            [
              118.8082112,
              31.9159346
            ],
            [
              118.8075962,
              31.9157745
            ],
            [
              118.8075716,
              31.9157397
            ],
            [
              118.8075812,
              31.9156353
            ],
            [
              118.8075539,
              31.915604
            ],
            [
              118.8075033,
              31.9155912
            ],
            [
              118.8074158,
              31.9155842
            ],
            [
              118.8073981,
              31.9155703
            ],
            [
              118.8073981,
              31.9155494
            ],
            [
              118.8074131,
              31.9145819
            ],
            [
              118.8074869,
              31.9135656
            ],
            [
              118.8076509,
              31.9133847
            ],
            [
              118.8076427,
              31.9131155
            ],
            [
              118.8075634,
              31.9129972
            ],
            [
              118.8076773,
              31.9122518
            ],
            [
              118.8076319,
              31.911863
            ],
            [
              118.8069667,
              31.9109523
            ],
            [
              118.8064946,
              31.9103694
            ],
            [
              118.8063015,
              31.9097137
            ],
            [
              118.806323,
              31.9089122
            ],
            [
              118.8062801,
              31.9081654
            ],
            [
              118.8062801,
              31.9076189
            ],
            [
              118.8060011,
              31.9070178
            ],
            [
              118.805808,
              31.9064713
            ],
            [
              118.8051857,
              31.9061799
            ],
            [
              118.8049711,
              31.9060888
            ],
            [
              118.8049926,
              31.9048683
            ],
            [
              118.8058938,
              31.9050141
            ],
            [
              118.806559,
              31.906107
            ],
            [
              118.8069023,
              31.9067081
            ],
            [
              118.8078035,
              31.9073092
            ],
            [
              118.80834,
              31.9076736
            ],
            [
              118.8088764,
              31.9077282
            ],
            [
              118.8094558,
              31.9078375
            ],
            [
              118.8101976,
              31.9071544
            ],
            [
              118.8105842,
              31.9070946
            ],
            [
              118.811108,
              31.906362
            ],
            [
              118.8109146,
              31.9060213
            ],
            [
              118.8103309,
              31.9057555
            ],
            [
              118.8100457,
              31.9055615
            ],
            [
              118.8098743,
              31.905209
            ],
            [
              118.8098461,
              31.9048038
            ],
            [
              118.8099775,
              31.9045809
            ],
            [
              118.8105012,
              31.9039817
            ],
            [
              118.8106145,
              31.90332
            ],
            [
              118.8103487,
              31.9028918
            ],
            [
              118.8097735,
              31.9025654
            ],
            [
              118.8092247,
              31.9024266
            ],
            [
              118.8088554,
              31.9021453
            ],
            [
              118.8087167,
              31.901771
            ],
            [
              118.8086907,
              31.9010623
            ],
            [
              118.8085301,
              31.9005096
            ],
            [
              118.8079967,
              31.9001321
            ],
            [
              118.8073934,
              31.8999172
            ],
            [
              118.8065143,
              31.8998171
            ],
            [
              118.8063189,
              31.8995182
            ],
            [
              118.8063234,
              31.8992087
            ],
            [
              118.8066262,
              31.8986842
            ],
            [
              118.8070129,
              31.8982619
            ],
            [
              118.8075536,
              31.8978956
            ],
            [
              118.8077318,
              31.8973535
            ],
            [
              118.8082092,
              31.8969819
            ],
            [
              118.8084921,
              31.8959575
            ],
            [
              118.8095701,
              31.8960082
            ],
            [
              118.8100051,
              31.8960284
            ],
            [
              118.8102924,
              31.8960796
            ],
            [
              118.8100679,
              31.8964411
            ],
            [
              118.809968,
              31.8970192
            ],
            [
              118.8104775,
              31.8978837
            ],
            [
              118.8108494,
              31.898499
            ],
            [
              118.8107278,
              31.8988528
            ],
            [
              118.810475,
              31.8990026
            ],
            [
              118.8102175,
              31.8992759
            ],
            [
              118.8100781,
              31.8996766
            ],
            [
              118.8105949,
              31.900687
            ],
            [
              118.8106335,
              31.9015051
            ],
            [
              118.810872,
              31.9019902
            ],
            [
              118.8114299,
              31.9025913
            ],
            [
              118.8119449,
              31.9028828
            ],
            [
              118.8124599,
              31.9033382
            ],
            [
              118.8132901,
              31.9042619
            ],
            [
              118.8144383,
              31.9049514
            ],
            [
              118.815496,
              31.9052622
            ],
            [
              118.8163938,
              31.905201
            ],
            [
              118.817333,
              31.9051061
            ],
            [
              118.8178639,
              31.9051361
            ],
            [
              118.8185307,
              31.9053178
            ],
            [
              118.8194396,
              31.9054694
            ],
            [
              118.8202218,
              31.9053961
            ],
            [
              118.820821,
              31.9052781
            ],
            [
              118.8213108,
              31.9054978
            ],
            [
              118.8218154,
              31.906229
            ],
            [
              118.8216652,
              31.9069267
            ],
            [
              118.8216449,
              31.9077951
            ],
            [
              118.8217848,
              31.9081163
            ],
            [
              118.821816,
              31.9085269
            ]
          ]
        ]
      }
    },
    {
      "type": "Feature",
      "properties": {
        "osm_id": 99814932,
        "dataset": "university",
        "kind": "water_area",
        "name": "",
        "natural": "water",
        "landuse": "",
        "water": "",
        "area_type": "water"
      },
      "geometry": {
        "type": "Polygon",
        "coordinates": [
          [
            [
              118.7877414,
              31.9252668
            ],
            [
              118.7875912,
              31.9252486
            ],
            [
              118.787559,
              31.9251848
            ],
            [
              118.7874195,
              31.9252577
            ],
            [
              118.7873015,
              31.9252486
            ],
            [
              118.7873015,
              31.9250118
            ],
            [
              118.7875053,
              31.9248388
            ],
            [
              118.7876019,
              31.9246658
            ],
            [
              118.7876448,
              31.9245292
            ],
            [
              118.7876448,
              31.924338
            ],
            [
              118.7875805,
              31.9240921
            ],
            [
              118.7874732,
              31.9239828
            ],
            [
              118.7875161,
              31.9237825
            ],
            [
              118.7876556,
              31.9237188
            ],
            [
              118.7877628,
              31.9236277
            ],
            [
              118.7878272,
              31.9235913
            ],
            [
              118.7884817,
              31.9236459
            ],
            [
              118.788707,
              31.9236095
            ],
            [
              118.7888679,
              31.9235002
            ],
            [
              118.7889645,
              31.9234001
            ],
            [
              118.7890932,
              31.9234001
            ],
            [
              118.7892756,
              31.9234001
            ],
            [
              118.7894151,
              31.9235457
            ],
            [
              118.7894473,
              31.9237279
            ],
            [
              118.7892971,
              31.9241012
            ],
            [
              118.7893829,
              31.924256
            ],
            [
              118.7896189,
              31.9243289
            ],
            [
              118.7897262,
              31.9243198
            ],
            [
              118.7897369,
              31.9244473
            ],
            [
              118.7895438,
              31.924429
            ],
            [
              118.7893936,
              31.924429
            ],
            [
              118.7892863,
              31.9245565
            ],
            [
              118.789222,
              31.9247295
            ],
            [
              118.7891361,
              31.9247933
            ],
            [
              118.7889859,
              31.9248024
            ],
            [
              118.7888786,
              31.9248024
            ],
            [
              118.7885675,
              31.9246931
            ],
            [
              118.7882349,
              31.924684
            ],
            [
              118.7879345,
              31.9248297
            ],
            [
              118.7877736,
              31.9250027
            ],
            [
              118.7877414,
              31.9252668
            ]
          ]
        ]
      }
    },
    {
      "type": "Feature",
      "properties": {
        "osm_id": 156607329,
        "dataset": "university",
        "kind": "water_area",
        "name": "",
        "natural": "water",
        "landuse": "",
        "water": "",
        "area_type": "water"
      },
      "geometry": {
        "type": "Polygon",
        "coordinates": [
          [
            [
              118.7703788,
              31.9227771
            ],
            [
              118.7704148,
              31.92253
            ],
            [
              118.7703294,
              31.9224491
            ],
            [
              118.769525,
              31.9223233
            ],
            [
              118.7686082,
              31.9224131
            ],
            [
              118.7684015,
              31.922503
            ],
            [
              118.768051,
              31.9226378
            ],
            [
              118.7672646,
              31.9227592
            ],
            [
              118.7667658,
              31.9227322
            ],
            [
              118.7663164,
              31.9226064
            ],
            [
              118.7660108,
              31.9224266
            ],
            [
              118.7655345,
              31.9222738
            ],
            [
              118.7652514,
              31.9221929
            ],
            [
              118.7649952,
              31.92213
            ],
            [
              118.7647481,
              31.9220042
            ],
            [
              118.7645369,
              31.9217705
            ],
            [
              118.764047,
              31.9212537
            ],
            [
              118.7637999,
              31.9210021
            ],
            [
              118.7636785,
              31.9208628
            ],
            [
              118.7631618,
              31.920683
            ],
            [
              118.7627259,
              31.9206066
            ],
            [
              118.7622315,
              31.9205976
            ],
            [
              118.7621237,
              31.92071
            ],
            [
              118.7620608,
              31.9208987
            ],
            [
              118.7620653,
              31.9210335
            ],
            [
              118.7621417,
              31.9211684
            ],
            [
              118.7625776,
              31.9212313
            ],
            [
              118.7627708,
              31.9210965
            ],
            [
              118.7628741,
              31.921092
            ],
            [
              118.7631483,
              31.9212088
            ],
            [
              118.7636651,
              31.9216447
            ],
            [
              118.7638448,
              31.9218649
            ],
            [
              118.7641324,
              31.9222334
            ],
            [
              118.7643301,
              31.9224131
            ],
            [
              118.7644425,
              31.9225075
            ],
            [
              118.7647166,
              31.9226333
            ],
            [
              118.7649053,
              31.9227547
            ],
            [
              118.7654446,
              31.922885
            ],
            [
              118.7657502,
              31.9229389
            ],
            [
              118.7660153,
              31.9230108
            ],
            [
              118.7661771,
              31.9231187
            ],
            [
              118.766267,
              31.9233479
            ],
            [
              118.7662939,
              31.923604
            ],
            [
              118.7662894,
              31.9238152
            ],
            [
              118.7662086,
              31.9240084
            ],
            [
              118.7661232,
              31.9241522
            ],
            [
              118.7663793,
              31.9242781
            ],
            [
              118.7667478,
              31.924341
            ],
            [
              118.7669815,
              31.9244893
            ],
            [
              118.7672916,
              31.9245297
            ],
            [
              118.7675432,
              31.9247095
            ],
            [
              118.7679656,
              31.9249477
            ],
            [
              118.7681274,
              31.9250196
            ],
            [
              118.7681004,
              31.9251813
            ],
            [
              118.7681139,
              31.9252802
            ],
            [
              118.7682173,
              31.9253251
            ],
            [
              118.7682847,
              31.9252218
            ],
            [
              118.7683791,
              31.9250465
            ],
            [
              118.7683027,
              31.9248533
            ],
            [
              118.7682173,
              31.924723
            ],
            [
              118.7680825,
              31.9246511
            ],
            [
              118.767705,
              31.9244758
            ],
            [
              118.7671478,
              31.9241972
            ],
            [
              118.7669545,
              31.9241253
            ],
            [
              118.7668557,
              31.9238467
            ],
            [
              118.7668152,
              31.9236444
            ],
            [
              118.7668422,
              31.9235141
            ],
            [
              118.7668287,
              31.9233928
            ],
            [
              118.7668422,
              31.9232445
            ],
            [
              118.7671118,
              31.9231816
            ],
            [
              118.7673904,
              31.9231501
            ],
            [
              118.767696,
              31.9231277
            ],
            [
              118.7679207,
              31.9230917
            ],
            [
              118.7680915,
              31.9229884
            ],
            [
              118.76846,
              31.922885
            ],
            [
              118.7690846,
              31.9227996
            ],
            [
              118.7694351,
              31.9227412
            ],
            [
              118.7697452,
              31.9227457
            ],
            [
              118.7701137,
              31.9227682
            ],
            [
              118.7703788,
              31.9227771
            ]
          ]
        ]
      }
    },
    {
      "type": "Feature",
      "properties": {
        "osm_id": 189541223,
        "dataset": "university",
        "kind": "water_area",
        "name": "",
        "natural": "water",
        "landuse": "",
        "water": "river",
        "area_type": "river"
      },
      "geometry": {
        "type": "Polygon",
        "coordinates": [
          [
            [
              118.800844,
              31.9191572
            ],
            [
              118.8012561,
              31.9194221
            ],
            [
              118.8015505,
              31.919607
            ],
            [
              118.8021805,
              31.9199168
            ],
            [
              118.8024748,
              31.9201267
            ],
            [
              118.8028104,
              31.9202716
            ],
            [
              118.8033441,
              31.9203361
            ],
            [
              118.8039234,
              31.9203657
            ],
            [
              118.8046885,
              31.9204965
            ],
            [
              118.8057601,
              31.9206614
            ],
            [
              118.8072025,
              31.9208313
            ],
            [
              118.8080739,
              31.9209612
            ],
            [
              118.8083682,
              31.9209562
            ],
            [
              118.8085684,
              31.9208263
            ],
            [
              118.8087509,
              31.9206364
            ],
            [
              118.8090217,
              31.9200717
            ],
            [
              118.8091807,
              31.9198019
            ],
            [
              118.8093187,
              31.919636
            ],
            [
              118.8094788,
              31.9196276
            ],
            [
              118.8096049,
              31.919621
            ],
            [
              118.8096929,
              31.919632
            ],
            [
              118.8100638,
              31.9196819
            ],
            [
              118.8102287,
              31.9198518
            ],
            [
              118.8105407,
              31.9202266
            ],
            [
              118.8113709,
              31.9208963
            ],
            [
              118.8119949,
              31.921316
            ],
            [
              118.8123894,
              31.9214409
            ],
            [
              118.8127956,
              31.9214559
            ],
            [
              118.8131136,
              31.9217158
            ],
            [
              118.8133962,
              31.9220156
            ],
            [
              118.8139672,
              31.9223354
            ],
            [
              118.8147679,
              31.9225703
            ],
            [
              118.8162045,
              31.92305
            ],
            [
              118.817223,
              31.9232499
            ],
            [
              118.8178589,
              31.9233049
            ],
            [
              118.8185536,
              31.9235097
            ],
            [
              118.8192895,
              31.9238345
            ],
            [
              118.8196134,
              31.9240494
            ],
            [
              118.8205024,
              31.9243392
            ],
            [
              118.8203081,
              31.924734
            ],
            [
              118.8191482,
              31.9244992
            ],
            [
              118.8188656,
              31.9243442
            ],
            [
              118.8181474,
              31.9239945
            ],
            [
              118.8172113,
              31.9236746
            ],
            [
              118.8169051,
              31.9235847
            ],
            [
              118.8165165,
              31.9238046
            ],
            [
              118.8162163,
              31.9237946
            ],
            [
              118.8153626,
              31.9235347
            ],
            [
              118.8150152,
              31.92306
            ],
            [
              118.8145619,
              31.9229301
            ],
            [
              118.8136846,
              31.9226602
            ],
            [
              118.8117535,
              31.9222305
            ],
            [
              118.8110235,
              31.9222255
            ],
            [
              118.8108351,
              31.9221505
            ],
            [
              118.8105407,
              31.9218707
            ],
            [
              118.8101934,
              31.9216208
            ],
            [
              118.8099166,
              31.9216009
            ],
            [
              118.8088804,
              31.9215109
            ],
            [
              118.8074439,
              31.921276
            ],
            [
              118.8069081,
              31.921266
            ],
            [
              118.8061899,
              31.9210961
            ],
            [
              118.8058543,
              31.9210861
            ],
            [
              118.80566,
              31.9211311
            ],
            [
              118.8046061,
              31.9215509
            ],
            [
              118.8043883,
              31.9215509
            ],
            [
              118.8041351,
              31.921421
            ],
            [
              118.8037156,
              31.9212433
            ],
            [
              118.8031147,
              31.9211739
            ],
            [
              118.8025808,
              31.9211361
            ],
            [
              118.8018979,
              31.9209762
            ],
            [
              118.8017389,
              31.9208413
            ],
            [
              118.8015623,
              31.9205365
            ],
            [
              118.8012502,
              31.9203016
            ],
            [
              118.8007969,
              31.9202466
            ],
            [
              118.8005496,
              31.9202316
            ],
            [
              118.8003024,
              31.9201916
            ],
            [
              118.8000433,
              31.9200717
            ],
            [
              118.7997018,
              31.9199718
            ],
            [
              118.7993662,
              31.9198418
            ],
            [
              118.7988894,
              31.919487
            ],
            [
              118.7986362,
              31.9190922
            ],
            [
              118.7985126,
              31.9189173
            ],
            [
              118.798293,
              31.9186872
            ],
            [
              118.7983287,
              31.9184312
            ],
            [
              118.7982358,
              31.917738
            ],
            [
              118.7987834,
              31.9182077
            ],
            [
              118.7991484,
              31.9184926
            ],
            [
              118.7995782,
              31.9188224
            ],
            [
              118.8001964,
              31.9189773
            ],
            [
              118.800844,
              31.9191572
            ]
          ]
        ]
      }
    },
    {
      "type": "Feature",
      "properties": {
        "osm_id": 255863317,
        "dataset": "university",
        "kind": "water_area",
        "name": "",
        "natural": "water",
        "landuse": "",
        "water": "lake",
        "area_type": "lake"
      },
      "geometry": {
        "type": "Polygon",
        "coordinates": [
          [
            [
              118.7627513,
              31.9200053
            ],
            [
              118.7629732,
              31.9200668
            ],
            [
              118.7633015,
              31.9195748
            ],
            [
              118.7635642,
              31.9190117
            ],
            [
              118.7639514,
              31.9186351
            ],
            [
              118.7641823,
              31.9185294
            ],
            [
              118.7644019,
              31.9185889
            ],
            [
              118.7644948,
              31.9183794
            ],
            [
              118.7641461,
              31.9182295
            ],
            [
              118.7643317,
              31.9177145
            ],
            [
              118.7645265,
              31.9170783
            ],
            [
              118.7640193,
              31.9158772
            ],
            [
              118.7641166,
              31.9157042
            ],
            [
              118.7642661,
              31.9157522
            ],
            [
              118.7645763,
              31.9160136
            ],
            [
              118.7647121,
              31.9161289
            ],
            [
              118.7649884,
              31.9161462
            ],
            [
              118.7651763,
              31.9160175
            ],
            [
              118.7648616,
              31.9157734
            ],
            [
              118.7651401,
              31.9154582
            ],
            [
              118.764737,
              31.9151526
            ],
            [
              118.7632676,
              31.9151449
            ],
            [
              118.7630479,
              31.9162577
            ],
            [
              118.7634306,
              31.9166574
            ],
            [
              118.7635166,
              31.9176088
            ],
            [
              118.7625453,
              31.919277
            ],
            [
              118.7627921,
              31.9194768
            ],
            [
              118.7627513,
              31.9200053
            ]
          ]
        ]
      }
    },
    {
      "type": "Feature",
      "properties": {
        "osm_id": 332131128,
        "dataset": "university",
        "kind": "water_area",
        "name": "九龙湖",
        "natural": "water",
        "landuse": "",
        "water": "lake",
        "area_type": "lake"
      },
      "geometry": {
        "type": "Polygon",
        "coordinates": [
          [
            [
              118.8116723,
              31.8901922
            ],
            [
              118.8117702,
              31.8902161
            ],
            [
              118.8120417,
              31.890276
            ],
            [
              118.8121609,
              31.8903051
            ],
            [
              118.8122731,
              31.8903277
            ],
            [
              118.8124422,
              31.890365
            ],
            [
              118.8125977,
              31.8904381
            ],
            [
              118.8128439,
              31.8905715
            ],
            [
              118.8129167,
              31.8906109
            ],
            [
              118.8130892,
              31.8906841
            ],
            [
              118.8130892,
              31.8906274
            ],
            [
              118.8130801,
              31.890575
            ],
            [
              118.8127102,
              31.8902782
            ],
            [
              118.812515,
              31.8900193
            ],
            [
              118.8124703,
              31.8898536
            ],
            [
              118.8124785,
              31.8896361
            ],
            [
              118.8125354,
              31.8894981
            ],
            [
              118.8125806,
              31.8893456
            ],
            [
              118.8125847,
              31.8891972
            ],
            [
              118.8125684,
              31.8890315
            ],
            [
              118.8125034,
              31.888921
            ],
            [
              118.812353,
              31.8888451
            ],
            [
              118.8122107,
              31.8888347
            ],
            [
              118.8119789,
              31.8888899
            ],
            [
              118.8117919,
              31.8889314
            ],
            [
              118.8116456,
              31.888997
            ],
            [
              118.8115724,
              31.8891592
            ],
            [
              118.8115683,
              31.8892869
            ],
            [
              118.8116496,
              31.889463
            ],
            [
              118.8116048,
              31.8895134
            ],
            [
              118.8114631,
              31.8895921
            ],
            [
              118.8113424,
              31.8896456
            ],
            [
              118.8112472,
              31.8896809
            ],
            [
              118.8111815,
              31.8897253
            ],
            [
              118.8109817,
              31.8898813
            ],
            [
              118.8108864,
              31.8899007
            ],
            [
              118.810814,
              31.8899007
            ],
            [
              118.8107255,
              31.8898859
            ],
            [
              118.8105706,
              31.8898392
            ],
            [
              118.8104787,
              31.8898198
            ],
            [
              118.8103862,
              31.8898141
            ],
            [
              118.8100456,
              31.8898107
            ],
            [
              118.8098511,
              31.8898119
            ],
            [
              118.809721,
              31.8897857
            ],
            [
              118.8095963,
              31.889739
            ],
            [
              118.8092074,
              31.8895158
            ],
            [
              118.8090934,
              31.8894279
            ],
            [
              118.8090067,
              31.8894002
            ],
            [
              118.8088922,
              31.8895169
            ],
            [
              118.8088788,
              31.8896513
            ],
            [
              118.8088801,
              31.8897914
            ],
            [
              118.8088801,
              31.8899496
            ],
            [
              118.8089281,
              31.8902229
            ],
            [
              118.8090166,
              31.890405
            ],
            [
              118.8090867,
              31.8905372
            ],
            [
              118.8090518,
              31.8906465
            ],
            [
              118.8089606,
              31.8907604
            ],
            [
              118.8088346,
              31.8908834
            ],
            [
              118.8087836,
              31.890954
            ],
            [
              118.8087782,
              31.8910132
            ],
            [
              118.8088399,
              31.8911384
            ],
            [
              118.8089821,
              31.891209
            ],
            [
              118.809084,
              31.8913206
            ],
            [
              118.809084,
              31.8914117
            ],
            [
              118.8090089,
              31.8915529
            ],
            [
              118.8089687,
              31.8916895
            ],
            [
              118.8090116,
              31.8919765
            ],
            [
              118.8091269,
              31.8922369
            ],
            [
              118.8093353,
              31.8926509
            ],
            [
              118.8093213,
              31.8928627
            ],
            [
              118.8092583,
              31.8930769
            ],
            [
              118.8091341,
              31.8932261
            ],
            [
              118.8089842,
              31.8934418
            ],
            [
              118.8088468,
              31.8935292
            ],
            [
              118.8086942,
              31.8935301
            ],
            [
              118.8085813,
              31.8934623
            ],
            [
              118.8084845,
              31.8933621
            ],
            [
              118.8080309,
              31.8932286
            ],
            [
              118.8075682,
              31.893127
            ],
            [
              118.8073032,
              31.8930275
            ],
            [
              118.8071739,
              31.8931029
            ],
            [
              118.8071314,
              31.8932171
            ],
            [
              118.807181,
              31.8933794
            ],
            [
              118.8072147,
              31.8934971
            ],
            [
              118.80744,
              31.8936155
            ],
            [
              118.8078477,
              31.8937157
            ],
            [
              118.8080998,
              31.8937658
            ],
            [
              118.8083895,
              31.8938205
            ],
            [
              118.8085451,
              31.8938842
            ],
            [
              118.8086631,
              31.8939389
            ],
            [
              118.8087382,
              31.8940163
            ],
            [
              118.8087972,
              31.8941302
            ],
            [
              118.8088294,
              31.8942532
            ],
            [
              118.8088616,
              31.8943716
            ],
            [
              118.8088938,
              31.8945037
            ],
            [
              118.8089367,
              31.8946266
            ],
            [
              118.8090386,
              31.8947405
            ],
            [
              118.8091298,
              31.8947997
            ],
            [
              118.8092907,
              31.894868
            ],
            [
              118.8093819,
              31.8948908
            ],
            [
              118.8094356,
              31.8949227
            ],
            [
              118.809457,
              31.8949591
            ],
            [
              118.8095314,
              31.8950488
            ],
            [
              118.8096125,
              31.8950931
            ],
            [
              118.8097716,
              31.8952364
            ],
            [
              118.8097221,
              31.8954888
            ],
            [
              118.8095701,
              31.8960082
            ],
            [
              118.8100051,
              31.8960284
            ],
            [
              118.8100689,
              31.895597
            ],
            [
              118.8100265,
              31.8955549
            ],
            [
              118.8099415,
              31.8952484
            ],
            [
              118.8100697,
              31.894954
            ],
            [
              118.8100686,
              31.8948498
            ],
            [
              118.8100739,
              31.8947678
            ],
            [
              118.8101061,
              31.8946403
            ],
            [
              118.8101651,
              31.8945037
            ],
            [
              118.8102188,
              31.8944035
            ],
            [
              118.8103153,
              31.894326
            ],
            [
              118.8104495,
              31.8942896
            ],
            [
              118.8105031,
              31.8942349
            ],
            [
              118.8105728,
              31.8941211
            ],
            [
              118.8105728,
              31.8940163
            ],
            [
              118.8105246,
              31.893866
            ],
            [
              118.8104763,
              31.8937613
            ],
            [
              118.8103797,
              31.8936383
            ],
            [
              118.8103046,
              31.8935244
            ],
            [
              118.8102081,
              31.8934106
            ],
            [
              118.81009,
              31.8933423
            ],
            [
              118.8100149,
              31.8932648
            ],
            [
              118.809972,
              31.8931601
            ],
            [
              118.8099506,
              31.8930325
            ],
            [
              118.8099613,
              31.8929688
            ],
            [
              118.80996,
              31.8929495
            ],
            [
              118.8099306,
              31.8928672
            ],
            [
              118.8099497,
              31.8928035
            ],
            [
              118.8099345,
              31.8925861
            ],
            [
              118.8099289,
              31.8925003
            ],
            [
              118.8099316,
              31.8924001
            ],
            [
              118.8099316,
              31.8922771
            ],
            [
              118.8099343,
              31.8921769
            ],
            [
              118.8099455,
              31.8921468
            ],
            [
              118.8099799,
              31.8920539
            ],
            [
              118.8100265,
              31.8919671
            ],
            [
              118.810076,
              31.8918469
            ],
            [
              118.8101327,
              31.8917374
            ],
            [
              118.8101917,
              31.8916212
            ],
            [
              118.810291,
              31.8913798
            ],
            [
              118.8102964,
              31.8911544
            ],
            [
              118.8102454,
              31.8909562
            ],
            [
              118.8101917,
              31.8907923
            ],
            [
              118.8101676,
              31.8906374
            ],
            [
              118.8101783,
              31.8905121
            ],
            [
              118.8102186,
              31.890396
            ],
            [
              118.8102749,
              31.8902844
            ],
            [
              118.8103804,
              31.8901761
            ],
            [
              118.8106069,
              31.8900799
            ],
            [
              118.8108623,
              31.8900521
            ],
            [
              118.8111171,
              31.8900738
            ],
            [
              118.8112204,
              31.8900669
            ],
            [
              118.8113639,
              31.8900202
            ],
            [
              118.8114634,
              31.8900198
            ],
            [
              118.8115369,
              31.890059
            ],
            [
              118.8115979,
              31.890146
            ],
            [
              118.8116723,
              31.8901922
            ]
          ]
        ]
      }
    },
    {
      "type": "Feature",
      "properties": {
        "osm_id": 566746785,
        "dataset": "university",
        "kind": "water_area",
        "name": "",
        "natural": "water",
        "landuse": "",
        "water": "pond",
        "area_type": "pond"
      },
      "geometry": {
        "type": "Polygon",
        "coordinates": [
          [
            [
              118.7885088,
              31.9092039
            ],
            [
              118.788645,
              31.9089529
            ],
            [
              118.788669,
              31.9088324
            ],
            [
              118.7886707,
              31.9087091
            ],
            [
              118.7886603,
              31.9086087
            ],
            [
              118.7886257,
              31.908532
            ],
            [
              118.788483,
              31.9084138
            ],
            [
              118.7884788,
              31.9083933
            ],
            [
              118.7884949,
              31.9083861
            ],
            [
              118.7885323,
              31.9084039
            ],
            [
              118.7887339,
              31.9086032
            ],
            [
              118.7888502,
              31.9086612
            ],
            [
              118.7888861,
              31.9087193
            ],
            [
              118.7888656,
              31.9088107
            ],
            [
              118.7888006,
              31.908847
            ],
            [
              118.7887271,
              31.9088573
            ],
            [
              118.7885544,
              31.9091914
            ],
            [
              118.7885088,
              31.9092039
            ]
          ]
        ]
      }
    },
    {
      "type": "Feature",
      "properties": {
        "osm_id": 567783980,
        "dataset": "university",
        "kind": "water_area",
        "name": "",
        "natural": "water",
        "landuse": "",
        "water": "pond",
        "area_type": "pond"
      },
      "geometry": {
        "type": "Polygon",
        "coordinates": [
          [
            [
              118.7803888,
              31.9051133
            ],
            [
              118.7801926,
              31.9046831
            ],
            [
              118.780181,
              31.9045265
            ],
            [
              118.7804413,
              31.9040607
            ],
            [
              118.7809077,
              31.9041251
            ],
            [
              118.7810242,
              31.9041811
            ],
            [
              118.7810077,
              31.9041992
            ],
            [
              118.7810111,
              31.9042281
            ],
            [
              118.7812667,
              31.9044433
            ],
            [
              118.7809223,
              31.9048942
            ],
            [
              118.7805769,
              31.9051088
            ],
            [
              118.7804532,
              31.905138
            ],
            [
              118.7803888,
              31.9051133
            ]
          ]
        ]
      }
    },
    {
      "type": "Feature",
      "properties": {
        "osm_id": 568435583,
        "dataset": "university",
        "kind": "water_area",
        "name": "",
        "natural": "water",
        "landuse": "",
        "water": "pond",
        "area_type": "pond"
      },
      "geometry": {
        "type": "Polygon",
        "coordinates": [
          [
            [
              118.785031,
              31.9057145
            ],
            [
              118.7843706,
              31.9056585
            ],
            [
              118.7842451,
              31.9056304
            ],
            [
              118.7841262,
              31.9056136
            ],
            [
              118.7835649,
              31.9051651
            ],
            [
              118.7833073,
              31.9048399
            ],
            [
              118.7830497,
              31.9045147
            ],
            [
              118.7829044,
              31.9042961
            ],
            [
              118.7825777,
              31.9037179
            ],
            [
              118.7824909,
              31.9035905
            ],
            [
              118.7822955,
              31.9032009
            ],
            [
              118.7822927,
              31.9031343
            ],
            [
              118.7821872,
              31.902976
            ],
            [
              118.7820755,
              31.9028298
            ],
            [
              118.7820021,
              31.9027052
            ],
            [
              118.7818746,
              31.9025428
            ],
            [
              118.7816353,
              31.9022259
            ],
            [
              118.7802351,
              31.9005931
            ],
            [
              118.7803339,
              31.9005362
            ],
            [
              118.7817338,
              31.9021764
            ],
            [
              118.7818721,
              31.9023386
            ],
            [
              118.7822156,
              31.9028037
            ],
            [
              118.7822953,
              31.9027929
            ],
            [
              118.7830207,
              31.9041857
            ],
            [
              118.7832281,
              31.9044618
            ],
            [
              118.7838501,
              31.9051451
            ],
            [
              118.7838826,
              31.9051693
            ],
            [
              118.7839152,
              31.9051693
            ],
            [
              118.7849518,
              31.9051865
            ],
            [
              118.7850047,
              31.9052107
            ],
            [
              118.7850779,
              31.9052418
            ],
            [
              118.7851145,
              31.9052728
            ],
            [
              118.7851389,
              31.9053004
            ],
            [
              118.7851998,
              31.9056697
            ],
            [
              118.7851673,
              31.9056939
            ],
            [
              118.7851389,
              31.9057146
            ],
            [
              118.7850819,
              31.9057249
            ],
            [
              118.785031,
              31.9057145
            ]
          ]
        ]
      }
    },
    {
      "type": "Feature",
      "properties": {
        "osm_id": 711933561,
        "dataset": "university",
        "kind": "water_area",
        "name": "东湖",
        "natural": "water",
        "landuse": "",
        "water": "pond",
        "area_type": "pond"
      },
      "geometry": {
        "type": "Polygon",
        "coordinates": [
          [
            [
              118.7819948,
              31.9172277
            ],
            [
              118.7821135,
              31.9172661
            ],
            [
              118.7822425,
              31.9172434
            ],
            [
              118.7823597,
              31.917188
            ],
            [
              118.7824636,
              31.9171738
            ],
            [
              118.7825092,
              31.9170896
            ],
            [
              118.7825011,
              31.9170189
            ],
            [
              118.7824895,
              31.9169424
            ],
            [
              118.7824363,
              31.9168113
            ],
            [
              118.7824411,
              31.9167183
            ],
            [
              118.7823954,
              31.9166054
            ],
            [
              118.782404,
              31.916543
            ],
            [
              118.7824628,
              31.9164935
            ],
            [
              118.7825333,
              31.9164699
            ],
            [
              118.7825163,
              31.9164013
            ],
            [
              118.7824469,
              31.9162975
            ],
            [
              118.7823408,
              31.9161992
            ],
            [
              118.7820798,
              31.9160489
            ],
            [
              118.7818906,
              31.9161324
            ],
            [
              118.7817516,
              31.9163046
            ],
            [
              118.781792,
              31.9163595
            ],
            [
              118.781808,
              31.9164251
            ],
            [
              118.7818236,
              31.9164892
            ],
            [
              118.7818143,
              31.9165609
            ],
            [
              118.7817888,
              31.916613
            ],
            [
              118.7818986,
              31.9165709
            ],
            [
              118.7820668,
              31.9167096
            ],
            [
              118.7820674,
              31.9168579
            ],
            [
              118.781938,
              31.9168788
            ],
            [
              118.7818396,
              31.9169639
            ],
            [
              118.7819125,
              31.9171494
            ],
            [
              118.7819948,
              31.9172277
            ]
          ]
        ]
      }
    },
    {
      "type": "Feature",
      "properties": {
        "osm_id": 711933562,
        "dataset": "university",
        "kind": "water_area",
        "name": "廉池",
        "natural": "water",
        "landuse": "",
        "water": "pond",
        "area_type": "pond"
      },
      "geometry": {
        "type": "Polygon",
        "coordinates": [
          [
            [
              118.7823644,
              31.9157659
            ],
            [
              118.7825104,
              31.9159043
            ],
            [
              118.7826084,
              31.9159498
            ],
            [
              118.7826813,
              31.9159597
            ],
            [
              118.7827456,
              31.915951
            ],
            [
              118.7830012,
              31.9158036
            ],
            [
              118.783032,
              31.9157207
            ],
            [
              118.7830149,
              31.9156711
            ],
            [
              118.7829757,
              31.9156377
            ],
            [
              118.7829148,
              31.9156042
            ],
            [
              118.7828253,
              31.9155964
            ],
            [
              118.7824194,
              31.9156806
            ],
            [
              118.7823662,
              31.9157128
            ],
            [
              118.7823644,
              31.9157659
            ]
          ]
        ]
      }
    },
    {
      "type": "Feature",
      "properties": {
        "osm_id": 882878349,
        "dataset": "university",
        "kind": "water_area",
        "name": "",
        "natural": "water",
        "landuse": "",
        "water": "",
        "area_type": "water"
      },
      "geometry": {
        "type": "Polygon",
        "coordinates": [
          [
            [
              118.7884733,
              31.9138236
            ],
            [
              118.7884873,
              31.9137403
            ],
            [
              118.7885434,
              31.9136531
            ],
            [
              118.7886368,
              31.9136254
            ],
            [
              118.7887115,
              31.9135421
            ],
            [
              118.7896688,
              31.9140416
            ],
            [
              118.7902292,
              31.9144221
            ],
            [
              118.7907383,
              31.9148939
            ],
            [
              118.7908083,
              31.9151793
            ],
            [
              118.7907616,
              31.9162733
            ],
            [
              118.7903413,
              31.9162535
            ],
            [
              118.7903506,
              31.9159047
            ],
            [
              118.7903973,
              31.9152863
            ],
            [
              118.7903506,
              31.9150366
            ],
            [
              118.7901872,
              31.914878
            ],
            [
              118.7895801,
              31.9144221
            ],
            [
              118.7884733,
              31.9138236
            ]
          ]
        ]
      }
    },
    {
      "type": "Feature",
      "properties": {
        "osm_id": 1189841475,
        "dataset": "university",
        "kind": "water_area",
        "name": "",
        "natural": "water",
        "landuse": "",
        "water": "pond",
        "area_type": "pond"
      },
      "geometry": {
        "type": "Polygon",
        "coordinates": [
          [
            [
              118.8147718,
              31.8974116
            ],
            [
              118.814984,
              31.8974241
            ],
            [
              118.8150017,
              31.8972339
            ],
            [
              118.8147866,
              31.8972202
            ],
            [
              118.8147718,
              31.8974116
            ]
          ]
        ]
      }
    },
    {
      "type": "Feature",
      "properties": {
        "osm_id": 1189841476,
        "dataset": "university",
        "kind": "water_area",
        "name": "",
        "natural": "water",
        "landuse": "",
        "water": "pond",
        "area_type": "pond"
      },
      "geometry": {
        "type": "Polygon",
        "coordinates": [
          [
            [
              118.8147365,
              31.8977244
            ],
            [
              118.8149501,
              31.8977406
            ],
            [
              118.8149737,
              31.8975117
            ],
            [
              118.81476,
              31.8974967
            ],
            [
              118.8147365,
              31.8977244
            ]
          ]
        ]
      }
    },
    {
      "type": "Feature",
      "properties": {
        "osm_id": 1189841477,
        "dataset": "university",
        "kind": "water_area",
        "name": "",
        "natural": "water",
        "landuse": "",
        "water": "pond",
        "area_type": "pond"
      },
      "geometry": {
        "type": "Polygon",
        "coordinates": [
          [
            [
              118.814704,
              31.8980484
            ],
            [
              118.8149148,
              31.8980634
            ],
            [
              118.8149413,
              31.8978345
            ],
            [
              118.8147276,
              31.8978145
            ],
            [
              118.814704,
              31.8980484
            ]
          ]
        ]
      }
    },
    {
      "type": "Feature",
      "properties": {
        "osm_id": 1189841478,
        "dataset": "university",
        "kind": "water_area",
        "name": "",
        "natural": "water",
        "landuse": "",
        "water": "pond",
        "area_type": "pond"
      },
      "geometry": {
        "type": "Polygon",
        "coordinates": [
          [
            [
              118.8146981,
              31.8981435
            ],
            [
              118.8149074,
              31.8981598
            ],
            [
              118.8148883,
              31.8983725
            ],
            [
              118.8148558,
              31.8983675
            ],
            [
              118.8148043,
              31.89836
            ],
            [
              118.81476,
              31.8983562
            ],
            [
              118.8147144,
              31.8983575
            ],
            [
              118.8146775,
              31.8983637
            ],
            [
              118.8146981,
              31.8981435
            ]
          ]
        ]
      }
    },
    {
      "type": "Feature",
      "properties": {
        "osm_id": 1224921846,
        "dataset": "university",
        "kind": "water_area",
        "name": "",
        "natural": "water",
        "landuse": "",
        "water": "pond",
        "area_type": "pond"
      },
      "geometry": {
        "type": "Polygon",
        "coordinates": [
          [
            [
              118.7806314,
              31.917459
            ],
            [
              118.7806448,
              31.9174651
            ],
            [
              118.7806563,
              31.9174469
            ],
            [
              118.7806752,
              31.9174327
            ],
            [
              118.7806988,
              31.9174248
            ],
            [
              118.780724,
              31.9174242
            ],
            [
              118.780746,
              31.9174301
            ],
            [
              118.7807647,
              31.9174414
            ],
            [
              118.7807801,
              31.917459
            ],
            [
              118.780793,
              31.9174556
            ],
            [
              118.7807962,
              31.9168978
            ],
            [
              118.7806345,
              31.9168972
            ],
            [
              118.7806314,
              31.917459
            ]
          ]
        ]
      }
    }
  ]
}
